{
  "type": "FeatureCollection",
  "features": [
    {
      "type": "Feature",
      "properties": {
        "norad_id": 35196,
        "name": "FENGYUN 1C DEB",
        "group": "fengyun-1c-debris",
        "lat": 23.02124062929105,
        "lon": 2.6458032055886727,
        "alt_km": 741.9519400121308,
        "timestamp": "2025-12-17T07:00:47.192430+00:00",
        "meta_object_name": "FENGYUN 1C DEB",
        "meta_object_id": "1999-025DPC",
        "meta_epoch": "2025-12-16T07:19:03.300384",
        "meta_mean_motion": 14.19802405,
        "meta_eccentricity": 0.02142659,
        "meta_inclination": 98.5358,
        "meta_ra_of_asc_node": 5.3518,
        "meta_arg_of_pericenter": 327.9995,
        "meta_mean_anomaly": 49.7388,
        "meta_ephemeris_type": 0,
        "meta_classification_type": "U",
        "meta_norad_cat_id": 35196,
        "meta_element_set_no": 999,
        "meta_rev_at_epoch": 89185,
        "meta_bstar": 0.00062868313,
        "meta_mean_motion_dot": 1.63e-05,
        "meta_mean_motion_ddot": 0,
        "tle_line1": "1 35196U 99025DPC 25350.30489931  .00001630  00000+0  62868-3 0  9993",
        "tle_line2": "2 35196  98.5358   5.3518 0214265 327.9995  49.7388 14.19802405891854"
      },
      "geometry": {
        "type": "Point",
        "coordinates": [
          2.6458032055886727,
          23.02124062929105
        ]
      }
    },
    {
      "type": "Feature",
      "properties": {
        "norad_id": 35200,
        "name": "FENGYUN 1C DEB",
        "group": "fengyun-1c-debris",
        "lat": -80.91170987430745,
        "lon": 45.62677844676014,
        "alt_km": 1297.5797176130254,
        "timestamp": "2025-12-17T07:00:47.192440+00:00",
        "meta_object_name": "FENGYUN 1C DEB",
        "meta_object_id": "1999-025DPG",
        "meta_epoch": "2025-12-13T16:36:38.895840",
        "meta_mean_motion": 13.41960684,
        "meta_eccentricity": 0.03532467,
        "meta_inclination": 98.8701,
        "meta_ra_of_asc_node": 324.9883,
        "meta_arg_of_pericenter": 57.8672,
        "meta_mean_anomaly": 113.6956,
        "meta_ephemeris_type": 0,
        "meta_classification_type": "U",
        "meta_norad_cat_id": 35200,
        "meta_element_set_no": 999,
        "meta_rev_at_epoch": 65916,
        "meta_bstar": 0.00059837138,
        "meta_mean_motion_dot": 4.51e-06,
        "meta_mean_motion_ddot": 0,
        "tle_line1": "1 35200U 99025DPG 25347.69211685  .00000451  00000+0  59837-3 0  9998",
        "tle_line2": "2 35200  98.8701 324.9883 0353246  57.8672 113.6956 13.41960684659160"
      },
      "geometry": {
        "type": "Point",
        "coordinates": [
          45.62677844676014,
          -80.91170987430745
        ]
      }
    },
    {
      "type": "Feature",
      "properties": {
        "norad_id": 35201,
        "name": "FENGYUN 1C DEB",
        "group": "fengyun-1c-debris",
        "lat": -74.15145269158121,
        "lon": 147.51577073426444,
        "alt_km": 859.0985265602267,
        "timestamp": "2025-12-17T07:00:47.192453+00:00",
        "meta_object_name": "FENGYUN 1C DEB",
        "meta_object_id": "1999-025DPH",
        "meta_epoch": "2025-12-16T06:15:58.279680",
        "meta_mean_motion": 14.11053965,
        "meta_eccentricity": 0.00059011,
        "meta_inclination": 98.7078,
        "meta_ra_of_asc_node": 359.1899,
        "meta_arg_of_pericenter": 237.5244,
        "meta_mean_anomaly": 184.1704,
        "meta_ephemeris_type": 0,
        "meta_classification_type": "U",
        "meta_norad_cat_id": 35201,
        "meta_element_set_no": 999,
        "meta_rev_at_epoch": 87069,
        "meta_bstar": 0.00013891747,
        "meta_mean_motion_dot": 2.07e-06,
        "meta_mean_motion_ddot": 0,
        "tle_line1": "1 35201U 99025DPH 25350.26109120  .00000207  00000+0  13892-3 0  9996",
        "tle_line2": "2 35201  98.7078 359.1899 0005901 237.5244 184.1704 14.11053965870698"
      },
      "geometry": {
        "type": "Point",
        "coordinates": [
          147.51577073426444,
          -74.15145269158121
        ]
      }
    },
    {
      "type": "Feature",
      "properties": {
        "norad_id": 35202,
        "name": "FENGYUN 1C DEB",
        "group": "fengyun-1c-debris",
        "lat": 32.71335646075757,
        "lon": 29.69777010713826,
        "alt_km": 896.4871483094248,
        "timestamp": "2025-12-17T07:00:47.192475+00:00",
        "meta_object_name": "FENGYUN 1C DEB",
        "meta_object_id": "1999-025DPJ",
        "meta_epoch": "2025-12-16T02:04:31.277568",
        "meta_mean_motion": 13.34745262,
        "meta_eccentricity": 0.03737817,
        "meta_inclination": 100.0908,
        "meta_ra_of_asc_node": 35.0737,
        "meta_arg_of_pericenter": 0.1614,
        "meta_mean_anomaly": 359.9571,
        "meta_ephemeris_type": 0,
        "meta_classification_type": "U",
        "meta_norad_cat_id": 35202,
        "meta_element_set_no": 999,
        "meta_rev_at_epoch": 57021,
        "meta_bstar": 0.00048107163,
        "meta_mean_motion_dot": 3.14e-06,
        "meta_mean_motion_ddot": 0,
        "tle_line1": "1 35202U 99025DPJ 25350.08647312  .00000314  00000+0  48107-3 0  9993",
        "tle_line2": "2 35202 100.0908  35.0737 0373781   0.1614 359.9571 13.34745262570219"
      },
      "geometry": {
        "type": "Point",
        "coordinates": [
          29.69777010713826,
          32.71335646075757
        ]
      }
    },
    {
      "type": "Feature",
      "properties": {
        "norad_id": 35203,
        "name": "FENGYUN 1C DEB",
        "group": "fengyun-1c-debris",
        "lat": -20.523960630855555,
        "lon": -36.36930965819086,
        "alt_km": 1544.4133031186993,
        "timestamp": "2025-12-17T07:00:47.192489+00:00",
        "meta_object_name": "FENGYUN 1C DEB",
        "meta_object_id": "1999-025DPK",
        "meta_epoch": "2025-12-14T15:46:11.925408",
        "meta_mean_motion": 13.26431843,
        "meta_eccentricity": 0.05113129,
        "meta_inclination": 102.0726,
        "meta_ra_of_asc_node": 315.9639,
        "meta_arg_of_pericenter": 155.0238,
        "meta_mean_anomaly": 207.6574,
        "meta_ephemeris_type": 0,
        "meta_classification_type": "U",
        "meta_norad_cat_id": 35203,
        "meta_element_set_no": 999,
        "meta_rev_at_epoch": 59676,
        "meta_bstar": 0.0018049628,
        "meta_mean_motion_dot": 1.569e-05,
        "meta_mean_motion_ddot": 0,
        "tle_line1": "1 35203U 99025DPK 25348.65708247  .00001569  00000+0  18050-2 0  9995",
        "tle_line2": "2 35203 102.0726 315.9639 0511312 155.0238 207.6574 13.26431843596765"
      },
      "geometry": {
        "type": "Point",
        "coordinates": [
          -36.36930965819086,
          -20.523960630855555
        ]
      }
    },
    {
      "type": "Feature",
      "properties": {
        "norad_id": 35204,
        "name": "FENGYUN 1C DEB",
        "group": "fengyun-1c-debris",
        "lat": 63.35728945719323,
        "lon": 161.7006990775977,
        "alt_km": 734.8245000692286,
        "timestamp": "2025-12-17T07:00:47.192526+00:00",
        "meta_object_name": "FENGYUN 1C DEB",
        "meta_object_id": "1999-025DPL",
        "meta_epoch": "2025-12-15T11:45:27.892224",
        "meta_mean_motion": 14.48830381,
        "meta_eccentricity": 0.00393907,
        "meta_inclination": 99.0087,
        "meta_ra_of_asc_node": 178.2129,
        "meta_arg_of_pericenter": 315.5086,
        "meta_mean_anomaly": 73.8266,
        "meta_ephemeris_type": 0,
        "meta_classification_type": "U",
        "meta_norad_cat_id": 35204,
        "meta_element_set_no": 999,
        "meta_rev_at_epoch": 90970,
        "meta_bstar": 0.001421671,
        "meta_mean_motion_dot": 5.377e-05,
        "meta_mean_motion_ddot": 0,
        "tle_line1": "1 35204U 99025DPL 25349.48990616  .00005377  00000+0  14217-2 0  9993",
        "tle_line2": "2 35204  99.0087 178.2129 0039390 315.5086  73.8266 14.48830381909708"
      },
      "geometry": {
        "type": "Point",
        "coordinates": [
          161.7006990775977,
          63.35728945719323
        ]
      }
    },
    {
      "type": "Feature",
      "properties": {
        "norad_id": 35207,
        "name": "FENGYUN 1C DEB",
        "group": "fengyun-1c-debris",
        "lat": 80.82015903209721,
        "lon": 18.623747209556093,
        "alt_km": 735.2506971653656,
        "timestamp": "2025-12-17T07:00:47.192537+00:00",
        "meta_object_name": "FENGYUN 1C DEB",
        "meta_object_id": "1999-025DPP",
        "meta_epoch": "2025-12-12T17:43:10.254432",
        "meta_mean_motion": 14.55448901,
        "meta_eccentricity": 0.00551737,
        "meta_inclination": 98.6911,
        "meta_ra_of_asc_node": 85.0661,
        "meta_arg_of_pericenter": 255.394,
        "meta_mean_anomaly": 104.1134,
        "meta_ephemeris_type": 0,
        "meta_classification_type": "U",
        "meta_norad_cat_id": 35207,
        "meta_element_set_no": 999,
        "meta_rev_at_epoch": 64904,
        "meta_bstar": 0.0031307529,
        "meta_mean_motion_dot": 0.00013868,
        "meta_mean_motion_ddot": 0,
        "tle_line1": "1 35207U 99025DPP 25346.73831313  .00013868  00000+0  31308-2 0  9993",
        "tle_line2": "2 35207  98.6911  85.0661 0055173 255.3940 104.1134 14.55448901649046"
      },
      "geometry": {
        "type": "Point",
        "coordinates": [
          18.623747209556093,
          80.82015903209721
        ]
      }
    }
  ]
}